[{"OBJECT_NAME":"SENTINEL-1A","OBJECT_ID":"2014-016A","EPOCH":"2026-03-10T00:10:49.728000","MEAN_MOTION":14.5919833,"ECCENTRICITY":0.00013278,"INCLINATION":98.1822,"RA_OF_ASC_NODE":77.9733,"ARG_OF_PERICENTER":84.6895,"MEAN_ANOMALY":275.4456,"EPHEMERIS_TYPE":0,"CLASSIFICATION_TYPE":"U","NORAD_CAT_ID":39634,"ELEMENT_SET_NO":999,"REV_AT_EPOCH":63555,"BSTAR":5.6499537e-5,"MEAN_MOTION_DOT":2.21e-6,"MEAN_MOTION_DDOT":0},{"OBJECT_NAME":"DMSP 5D-2 F13 DEB","OBJECT_ID":"1995-015DH","EPOCH":"2026-03-09T11:03:12.872160","MEAN_MOTION":14.61596777,"ECCENTRICITY":0.00214198,"INCLINATION":98.5876,"RA_OF_ASC_NODE":150.5488,"ARG_OF_PERICENTER":57.6625,"MEAN_ANOMALY":302.6645,"EPHEMERIS_TYPE":0,"CLASSIFICATION_TYPE":"U","NORAD_CAT_ID":40521,"ELEMENT_SET_NO":999,"REV_AT_EPOCH":57369,"BSTAR":0.0026777077,"MEAN_MOTION_DOT":0.00013322,"MEAN_MOTION_DDOT":0}]
